STARLINK-30313          
1 57676U 23124P   24004.94537442  .00026248  00000+0  12587-2 0  9997
2 57676  53.0535 294.0169 0001454  95.2082 264.9078 15.18745357 21965
STARLINK-30303          
1 57677U 23124Q   24005.07479233  .00002669  00000+0  14202-3 0  9994
2 57677  53.0539 293.3970 0001931 102.8382 257.2828 15.18738251 21840
STARLINK-30320          
1 57678U 23124R   24005.03092662 -.00008733  00000+0 -40115-3 0  9990
2 57678  53.0543 293.8399 0001345  91.6389 268.4759 15.18700035 21977
STARLINK-30321          
1 57679U 23124S   24005.08576433  .00031628  00000+0  15128-2 0  9991
2 57679  53.0552 293.4669 0001011 102.7125 257.3983 15.18738398 21526
STARLINK-30283          
1 57680U 23124T   24005.03310928  .00015669  00000+0  75919-3 0  9995
2 57680  53.0534 293.1534 0001578 112.6192 247.4970 15.18717537 21986
STARLINK-30273          
1 57681U 23124U   24004.83131062  .00013912  00000+0  67601-3 0  9991
2 57681  53.0554 294.7297 0001925 109.7338 250.3864 15.18712393 21943
STARLINK-30297          
1 57682U 23124V   24005.07260813  .00031197  00000+0  14922-2 0  9998
2 57682  53.0535 293.3870 0001240  96.9491 263.1644 15.18745403 21982
STARLINK-30295          
1 57683U 23124W   24004.79404634  .00000113  00000+0  20527-4 0  9992
2 57683  53.0528 291.6306 0002040 128.7071 231.4106 15.18719184 21985
STARLINK-30288          
1 57698U 23129A   24004.72327935 -.00000619  00000+0 -30743-4 0  9998
2 57698  43.0019 119.6703 0001547 280.4617  79.6051 15.02534990 21072
STARLINK-30347          
1 57699U 23129B   24004.77351587  .00009883  00000+0  74528-3 0  9992
2 57699  43.0015 107.2604 0001433 271.6747  88.3931 15.02554557 21224
STARLINK-30332          
1 57700U 23129C   24004.78642510  .00010076  00000+0  75977-3 0  9990
2 57700  43.0021 119.2841 0001527 281.9270  78.1401 15.02541005 20940
STARLINK-30345          
1 57701U 23129D   24004.70673426 -.00008609  00000+0 -62219-3 0  9999
2 57701  43.0030 120.4099 0001565 259.8001 100.2664 15.02585831 20929
STARLINK-30333          
1 57702U 23129E   24004.70008769  .00001193  00000+0  10331-3 0  9999
2 57702  43.0029 120.3602 0001183 269.8123  90.2583 15.02546013 21062
STARLINK-30336          
1 57703U 23129F   24004.70341506  .00001351  00000+0  11505-3 0  9999
2 57703  43.0030 120.3836 0001067 273.2139  86.8581 15.02544315 20927
STARLINK-30346          
1 57704U 23129G   24004.69342468  .00000592  00000+0  58879-4 0  9998
2 57704  43.0034 120.3073 0001150 278.3179  81.7533 15.02549408 20927
STARLINK-30342          
1 57705U 23129H   24004.78310088  .00005632  00000+0  43151-3 0  9998
2 57705  43.0022 119.2608 0001301 277.7725  82.2969 15.02548798 21082
STARLINK-30337          
1 57706U 23129J   24005.12700090  .00361973  00000+0  50747-2 0  9995
2 57706  42.9934  91.0337 0023228  34.1589 326.0762 15.54469932 21308
STARLINK-30327          
1 57707U 23129K   24004.65264025  .00014590  00000+0  79270-3 0  9999
2 57707  43.0016 108.9889 0001332 260.3736  99.6960 15.14333508 21051
STARLINK-30315          
1 57708U 23129L   24004.68343970  .00000914  00000+0  82693-4 0  9999
2 57708  43.0024 120.2324 0001209 268.9519  91.1185 15.02541585 21068
STARLINK-30287          
1 57709U 23129M   24004.69009486  .00001634  00000+0  13597-3 0  9998
2 57709  43.0024 120.2834 0001143 267.8857  92.1854 15.02547207 21066
STARLINK-30335          
1 57710U 23129N   24004.81972411  .00015010  00000+0  11230-2 0  9995
2 57710  43.0016 119.5337 0001387 276.5188  83.5496 15.02565042 21087
STARLINK-30318          
1 57711U 23129P   24004.72048589 -.00000037  00000+0  12483-4 0  9993
2 57711  43.0029 119.6490 0001129 267.1160  92.9553 15.01725408 20937
STARLINK-30348          
1 57712U 23129Q   24004.80974026  .00013126  00000+0  98405-3 0  9996
2 57712  43.0021 119.4593 0001448 273.0438  87.0238 15.02569306 21086
STARLINK-30349          
1 57713U 23129R   24004.80308186  .00009046  00000+0  68352-3 0  9999
2 57713  43.0016 119.4095 0001210 264.1295  95.9410 15.02553744 20940
STARLINK-30341          
1 57714U 23129S   24004.71328832  .00001648  00000+0  13701-3 0  9998
2 57714  43.0033 119.5941 0001033 265.9247  94.1478 15.02543270 21073
STARLINK-30300          
1 57715U 23129T   24004.81306625  .00009128  00000+0  68959-3 0  9992
2 57715  43.0017 119.4853 0001365 277.9714  82.0973 15.02554800 21085
STARLINK-30281          
1 57716U 23129U   24004.72661964 -.00000077  00000+0  93667-5 0  9994
2 57716  43.0015 119.6970 0001445 267.5542  92.5134 15.02531110 20936
STARLINK-30325          
1 57717U 23129V   24004.67344997  .00000788  00000+0  73374-4 0  9993
2 57717  43.0023 120.1553 0001190 260.9933  99.0775 15.02540874 21063
STARLINK-30338          
1 57718U 23129W   24004.79642002  .00017710  00000+0  13219-2 0  9998
2 57718  43.0013 119.3601 0001387 292.4772  67.5924 15.02561565 21084
STARLINK-30334          
1 57719U 23129X   24004.73327622  .00004915  00000+0  37864-3 0  9997
2 57719  43.0017 119.7453 0001161 267.0037  93.0673 15.02539042 20933
STARLINK-30375          
1 57732U 23131A   24004.80970983  .00004404  00000+0  23705-3 0  9999
2 57732  43.0027 159.8607 0001105 272.2958  87.7763 15.15977196 20494
STARLINK-30310          
1 57733U 23131B   24004.84625174  .00000603  00000+0  59664-4 0  9994
2 57733  43.0030 170.3455 0001170 268.5264  91.5444 15.02539328 20371
STARLINK-30365          
1 57734U 23131C   24004.88288612  .00006554  00000+0  49955-3 0  9993
2 57734  43.0019 170.5916 0001307 278.9950  81.0744 15.02555298 20362
STARLINK-30371          
1 57735U 23131D   24004.85957122 -.00000347  00000+0 -10642-4 0  9998
2 57735  43.0028 170.4462 0001165 257.2348 102.8364 15.02550651 20257
STARLINK-30352          
1 57736U 23131E   24004.84957854  .00001587  00000+0  13249-3 0  9990
2 57736  43.0034 170.3710 0001130 267.2816  92.7897 15.02543051 20369
STARLINK-30344          
1 57737U 23131F   24004.82974068  .00001311  00000+0  11214-3 0  9990
2 57737  43.0027 171.0858 0001192 270.4993  89.5712 15.02533262 20355
STARLINK-30351          
1 57738U 23131G   24004.82637719  .00002003  00000+0  16325-3 0  9997
2 57738  43.0027 171.0584 0001311 258.4749 101.5946 15.02554589 20359
STARLINK-30242          
1 57739U 23131H   24004.88673466  .00024924  00000+0  12822-2 0  9996
2 57739  43.0018 148.2975 0001510 267.6138  92.4537 15.15986985 20510
STARLINK-30331          
1 57740U 23131J   24004.88621383 -.00000531  00000+0 -24239-4 0  9996
2 57740  43.0031 170.6482 0001325 268.2482  91.8209 15.02537913 20363
STARLINK-30364          
1 57741U 23131K   24004.87622163  .00000720  00000+0  68329-4 0  9999
2 57741  43.0032 170.5733 0001243 272.4831  87.5869 15.02537059 20362
STARLINK-30308          
1 57742U 23131L   24004.88954463  .00000157  00000+0  26726-4 0  9991
2 57742  43.0026 170.6738 0001227 271.1214  88.9488 15.02534071 20379
STARLINK-30361          
1 57743U 23131M   24004.87289151  .00002793  00000+0  22174-3 0  9996
2 57743  43.0020 170.5487 0001271 270.9451  89.1245 15.02539978 20367
STARLINK-30363          
1 57744U 23131N   24004.84145690  .00015749  00000+0  81568-3 0  9990
2 57744  43.0019 159.2462 0001466 282.3779  77.6904 15.15984012 20494
STARLINK-30362          
1 57745U 23131P   24004.86956010  .00002115  00000+0  17158-3 0  9996
2 57745  43.0014 170.5249 0001252 267.3226  92.7473 15.02541707 20363
STARLINK-30350          
1 57746U 23131Q   24004.84995556  .00003021  00000+0  24364-3 0  9997
2 57746  43.0017 170.3732 0001411 266.7847  93.2833 15.01732347 20368
STARLINK-30307          
1 57747U 23131R   24004.86622877  .00003510  00000+0  27467-3 0  9993
2 57747  43.0023 170.4987 0001324 280.1683  79.9010 15.02552228 20367
STARLINK-30356          
1 57748U 23131S   24004.86289548  .00001792  00000+0  14775-3 0  9996
2 57748  43.0031 170.4727 0001789 282.0038  78.0604 15.02531563 20367
STARLINK-30366          
1 57749U 23131T   24004.84292010  .00002241  00000+0  18087-3 0  9993
2 57749  43.0030 170.3218 0001349 281.0134  79.0557 15.02544647 20364
STARLINK-30357          
1 57750U 23131U   24004.85291170  .00004016  00000+0  31209-3 0  9995
2 57750  43.0024 170.3959 0001364 270.4589  89.6097 15.02547047 20367
STARLINK-30370          
1 57751U 23131V   24004.87807362 -.00040920  00000+0 -21146-2 0  9998
2 57751  43.0024 158.7015 0001172 280.3895  79.6820 15.15625434 20395
STARLINK-30368          
1 57752U 23131W   24004.81306365  .00001107  00000+0  96973-4 0  9994
2 57752  43.0027 170.9270 0001234 273.4885  86.5816 15.02545530 20351
STARLINK-30343          
1 57753U 23131X   24004.85624470  .00000747  00000+0  70374-4 0  9995
2 57753  43.0024 170.4218 0001427 271.0514  89.0165 15.02537951 20367
STARLINK-30397          
1 57771U 23134A   24004.92558101  .00001084  00000+0  95323-4 0  9999
2 57771  43.0027 196.4103 0001221 266.8786  93.1916 15.02540146 19915
STARLINK-30354          
1 57772U 23134B   24004.87230468  .00003496  00000+0  27365-3 0  9996
2 57772  43.0018 196.0078 0001371 271.3959  88.6726 15.02544135 19912
STARLINK-30383          
1 57773U 23134C   24004.92225193  .00000330  00000+0  39516-4 0  9998
2 57773  43.0025 196.3839 0001097 270.9500  89.1217 15.02536010 19915
STARLINK-30384          
1 57774U 23134D   24004.91559168  .00000424  00000+0  46433-4 0  9990
2 57774  43.0029 196.3340 0001176 267.3348  92.7359 15.02536471 19913
STARLINK-30305          
1 57775U 23134E   24004.91891751  .00001365  00000+0  11610-3 0  9991
2 57775  43.0025 196.3594 0001134 271.0178  89.0534 15.02541918 19914
STARLINK-30360          
1 57776U 23134F   24004.91228472 -.00000816  00000+0 -45350-4 0  9997
2 57776  43.0022 196.3095 0001104 273.2217  86.8499 15.02524863 19750
STARLINK-30355          
1 57777U 23134G   24004.90559687  .00000469  00000+0  49782-4 0  9997
2 57777  43.0029 196.2363 0001294 272.1617  87.9077 15.02541987 19904
